[Satellite]
VERSION=1.1
NAME=IRIDIUM 35 [+]
NICKNAME=IRIDIUM 35 [+]
TLE1=1 24966U 97056B   18020.67328032 -.00000065  00000-0 -30319-4 0  9999
TLE2=2 24966  86.3954 227.7571 0001933  85.7493 274.3923 14.34218763 63421
